{"type": "FeatureCollection", "features": [ {"type": "Feature", "properties": {"norad_id": 34303, "name": "COSMOS 2251 DEB", "group": "cosmos-2251-debris", "lat": -52.857208966132355, "lon": 126.99673825428809, "alt_km": 812.7029714339878, "timestamp": "2025-12-14T11:29:50.454273+00:00", "meta": {"OBJECT_NAME": "COSMOS 2251 DEB", "OBJECT_ID": "1993-036MZ", "EPOCH": "2025-12-13T13:46:06.098016", "MEAN_MOTION": 14.54468902, "ECCENTRICITY": 0.01350109, "INCLINATION": 74.0054, "RA_OF_ASC_NODE": 286.4608, "ARG_OF_PERICENTER": 64.6215, "MEAN_ANOMALY": 112.4393, "EPHEMERIS_TYPE": 0, "CLASSIFICATION_TYPE": "U", "NORAD_CAT_ID": 34303, "ELEMENT_SET_NO": 999, "REV_AT_EPOCH": 87974, "BSTAR": 0.0017899036, "MEAN_MOTION_DOT": 8.589e-05, "MEAN_MOTION_DDOT": 0}, "tle": {"line1": "1 34303U 93036MZ  25347.57368169  .00008589  00000+0  17899-2 0  9995", "line2": "2 34303  74.0054 286.4608 0135010  64.6215 112.4393 14.54468902879744"}}, "geometry": {"type": "Point", "coordinates": [126.99673825428809, -52.857208966132355]}}, {"type": "Feature", "properties": {"norad_id": 34304, "name": "COSMOS 2251 DEB", "group": "cosmos-2251-debris", "lat": -59.031533808580356, "lon": -32.076274513330105, "alt_km": 682.6972543341217, "timestamp": "2025-12-14T11:29:50.454283+00:00", "meta": {"OBJECT_NAME": "COSMOS 2251 DEB", "OBJECT_ID": "1993-036NA", "EPOCH": "2025-12-13T16:04:05.115360", "MEAN_MOTION": 14.3787251, "ECCENTRICITY": 0.01289769, "INCLINATION": 74.0131, "RA_OF_ASC_NODE": 120.88, "ARG_OF_PERICENTER": 258.4873, "MEAN_ANOMALY": 116.0795, "EPHEMERIS_TYPE": 0, "CLASSIFICATION_TYPE": "U", "NORAD_CAT_ID": 34304, "ELEMENT_SET_NO": 999, "REV_AT_EPOCH": 87310, "BSTAR": 0.0017930331, "MEAN_MOTION_DOT": 5.932e-05, "MEAN_MOTION_DDOT": 0}, "tle": {"line1": "1 34304U 93036NA  25347.66950365  .00005932  00000+0  17930-2 0  9996", "line2": "2 34304  74.0131 120.8800 0128976 258.4873 116.0795 14.37872510873107"}}, "geometry": {"type": "Point", "coordinates": [-32.076274513330105, -59.031533808580356]}}, {"type": "Feature", "properties": {"norad_id": 34307, "name": "COSMOS 2251 DEB", "group": "cosmos-2251-debris", "lat": -65.96157497838475, "lon": -89.54182677142587, "alt_km": 1305.3367241738315, "timestamp": "2025-12-14T11:29:50.454293+00:00", "meta": {"OBJECT_NAME": "COSMOS 2251 DEB", "OBJECT_ID": "1993-036ND", "EPOCH": "2025-12-13T15:27:02.071008", "MEAN_MOTION": 13.54322102, "ECCENTRICITY": 0.03920322, "INCLINATION": 74.0534, "RA_OF_ASC_NODE": 311.6647, "ARG_OF_PERICENTER": 142.4072, "MEAN_ANOMALY": 32.4171, "EPHEMERIS_TYPE": 0, "CLASSIFICATION_TYPE": "U", "NORAD_CAT_ID": 34307, "ELEMENT_SET_NO": 999, "REV_AT_EPOCH": 82874, "BSTAR": 0.00082013934, "MEAN_MOTION_DOT": 8.94e-06, "MEAN_MOTION_DDOT": 0}, "tle": {"line1": "1 34307U 93036ND  25347.64377397  .00000894  00000+0  82014-3 0  9993", "line2": "2 34307  74.0534 311.6647 0392032 142.4072  32.4171 13.54322102828749"}}, "geometry": {"type": "Point", "coordinates": [-89.54182677142587, -65.96157497838475]}}, {"type": "Feature", "properties": {"norad_id": 34313, "name": "COSMOS 2251 DEB", "group": "cosmos-2251-debris", "lat": 23.968019037348565, "lon": -50.81985967665439, "alt_km": 501.867194016073, "timestamp": "2025-12-14T11:29:50.454303+00:00", "meta": {"OBJECT_NAME": "COSMOS 2251 DEB", "OBJECT_ID": "1993-036NK", "EPOCH": "2025-12-13T14:50:39.633792", "MEAN_MOTION": 15.19312034, "ECCENTRICITY": 0.00113767, "INCLINATION": 73.9726, "RA_OF_ASC_NODE": 303.6462, "ARG_OF_PERICENTER": 80.095, "MEAN_ANOMALY": 280.153, "EPHEMERIS_TYPE": 0, "CLASSIFICATION_TYPE": "U", "NORAD_CAT_ID": 34313, "ELEMENT_SET_NO": 999, "REV_AT_EPOCH": 89078, "BSTAR": 0.0042554308, "MEAN_MOTION_DOT": 0.00091131, "MEAN_MOTION_DDOT": 0}, "tle": {"line1": "1 34313U 93036NK  25347.61851428  .00091131  00000+0  42554-2 0  9997", "line2": "2 34313  73.9726 303.6462 0011376  80.0950 280.1530 15.19312034890784"}}, "geometry": {"type": "Point", "coordinates": [-50.81985967665439, 23.968019037348565]}}, {"type": "Feature", "properties": {"norad_id": 34314, "name": "COSMOS 2251 DEB", "group": "cosmos-2251-debris", "lat": 46.728160580881095, "lon": 107.54260625248291, "alt_km": 816.1930747723491, "timestamp": "2025-12-14T11:29:50.454313+00:00", "meta": {"OBJECT_NAME": "COSMOS 2251 DEB", "OBJECT_ID": "1993-036NL", "EPOCH": "2025-12-13T15:23:49.809408", "MEAN_MOTION": 14.17426968, "ECCENTRICITY": 0.01028246, "INCLINATION": 74.0062, "RA_OF_ASC_NODE": 306.774, "ARG_OF_PERICENTER": 52.1954, "MEAN_ANOMALY": 125.4361, "EPHEMERIS_TYPE": 0, "CLASSIFICATION_TYPE": "U", "NORAD_CAT_ID": 34314, "ELEMENT_SET_NO": 999, "REV_AT_EPOCH": 86670, "BSTAR": 0.00072444733, "MEAN_MOTION_DOT": 1.521e-05, "MEAN_MOTION_DDOT": 0}, "tle": {"line1": "1 34314U 93036NL  25347.64154872  .00001521  00000+0  72445-3 0  9997", "line2": "2 34314  74.0062 306.7740 0102824  52.1954 125.4361 14.17426968866703"}}, "geometry": {"type": "Point", "coordinates": [107.54260625248291, 46.728160580881095]}}, {"type": "Feature", "properties": {"norad_id": 34316, "name": "COSMOS 2251 DEB", "group": "cosmos-2251-debris", "lat": 61.95802296155092, "lon": 5.844386597862386, "alt_km": 579.8842286155577, "timestamp": "2025-12-14T11:29:50.454323+00:00", "meta": {"OBJECT_NAME": "COSMOS 2251 DEB", "OBJECT_ID": "1993-036NN", "EPOCH": "2025-12-13T01:24:10.944000", "MEAN_MOTION": 14.91846107, "ECCENTRICITY": 0.00083129, "INCLINATION": 74.0651, "RA_OF_ASC_NODE": 336.2503, "ARG_OF_PERICENTER": 60.3367, "MEAN_ANOMALY": 299.8643, "EPHEMERIS_TYPE": 0, "CLASSIFICATION_TYPE": "U", "NORAD_CAT_ID": 34316, "ELEMENT_SET_NO": 999, "REV_AT_EPOCH": 89214, "BSTAR": 0.0022560474, "MEAN_MOTION_DOT": 0.0002284, "MEAN_MOTION_DDOT": 0}, "tle": {"line1": "1 34316U 93036NN  25347.05846000  .00022840  00000+0  22560-2 0  9994", "line2": "2 34316  74.0651 336.2503 0008312  60.3367 299.8643 14.91846107892149"}}, "geometry": {"type": "Point", "coordinates": [5.844386597862386, 61.95802296155092]}}, {"type": "Feature", "properties": {"norad_id": 34317, "name": "COSMOS 2251 DEB", "group": "cosmos-2251-debris", "lat": 69.1948028079658, "lon": 163.53173920763072, "alt_km": 965.2326526252336, "timestamp": "2025-12-14T11:29:50.454333+00:00", "meta": {"OBJECT_NAME": "COSMOS 2251 DEB", "OBJECT_ID": "1993-036NP", "EPOCH": "2025-12-13T12:28:19.156224", "MEAN_MOTION": 13.65122716, "ECCENTRICITY": 0.03365384, "INCLINATION": 73.9247, "RA_OF_ASC_NODE": 34.4743, "ARG_OF_PERICENTER": 23.5834, "MEAN_ANOMALY": 42.8611, "EPHEMERIS_TYPE": 0, "CLASSIFICATION_TYPE": "U", "NORAD_CAT_ID": 34317, "ELEMENT_SET_NO": 999, "REV_AT_EPOCH": 83630, "BSTAR": 0.00053173727, "MEAN_MOTION_DOT": 6.13e-06, "MEAN_MOTION_DDOT": 0}, "tle": {"line1": "1 34317U 93036NP  25347.51966616  .00000613  00000+0  53174-3 0  9992", "line2": "2 34317  73.9247  34.4743 0336538  23.5834  42.8611 13.65122716836306"}}, "geometry": {"type": "Point", "coordinates": [163.53173920763072, 69.1948028079658]}}, {"type": "Feature", "properties": {"norad_id": 34321, "name": "COSMOS 2251 DEB", "group": "cosmos-2251-debris", "lat": -43.46603265533478, "lon": 137.34301247807105, "alt_km": 722.1874572632614, "timestamp": "2025-12-14T11:29:50.454343+00:00", "meta": {"OBJECT_NAME": "COSMOS 2251 DEB", "OBJECT_ID": "1993-036NT", "EPOCH": "2025-12-13T12:49:21.131040", "MEAN_MOTION": 14.50060851, "ECCENTRICITY": 0.0015851, "INCLINATION": 74.028, "RA_OF_ASC_NODE": 154.8689, "ARG_OF_PERICENTER": 284.3965, "MEAN_ANOMALY": 139.9232, "EPHEMERIS_TYPE": 0, "CLASSIFICATION_TYPE": "U", "NORAD_CAT_ID": 34321, "ELEMENT_SET_NO": 999, "REV_AT_EPOCH": 88498, "BSTAR": 0.00077647802, "MEAN_MOTION_DOT": 2.989e-05, "MEAN_MOTION_DDOT": 0}, "tle": {"line1": "1 34321U 93036NT  25347.53427235  .00002989  00000+0  77648-3 0  9998", "line2": "2 34321  74.0280 154.8689 0015851 284.3965 139.9232 14.50060851884980"}}, "geometry": {"type": "Point", "coordinates": [137.34301247807105, -43.46603265533478]}}, {"type": "Feature", "properties": {"norad_id": 34323, "name": "COSMOS 2251 DEB", "group": "cosmos-2251-debris", "lat": 54.50684973664907, "lon": -84.10439587835408, "alt_km": 609.9603569795408, "timestamp": "2025-12-14T11:29:50.454353+00:00", "meta": {"OBJECT_NAME": "COSMOS 2251 DEB", "OBJECT_ID": "1993-036NV", "EPOCH": "2025-12-13T12:30:04.889952", "MEAN_MOTION": 14.74478602, "ECCENTRICITY": 0.00589305, "INCLINATION": 73.9525, "RA_OF_ASC_NODE": 121.5809, "ARG_OF_PERICENTER": 165.4987, "MEAN_ANOMALY": 272.9235, "EPHEMERIS_TYPE": 0, "CLASSIFICATION_TYPE": "U", "NORAD_CAT_ID": 34323, "ELEMENT_SET_NO": 999, "REV_AT_EPOCH": 88451, "BSTAR": 0.0041591843, "MEAN_MOTION_DOT": 0.00028514, "MEAN_MOTION_DDOT": 0}, "tle": {"line1": "1 34323U 93036NV  25347.52088993  .00028514  00000+0  41592-2 0  9993", "line2": "2 34323  73.9525 121.5809 0058930 165.4987 272.9235 14.74478602884518"}}, "geometry": {"type": "Point", "coordinates": [-84.10439587835408, 54.50684973664907]}}, {"type": "Feature", "properties": {"norad_id": 34325, "name": "COSMOS 2251 DEB", "group": "cosmos-2251-debris", "lat": -71.70141242669735, "lon": 70.7896546076282, "alt_km": 802.5537378293056, "timestamp": "2025-12-14T11:29:50.454363+00:00", "meta": {"OBJECT_NAME": "COSMOS 2251 DEB", "OBJECT_ID": "1993-036NX", "EPOCH": "2025-12-13T15:47:49.341408", "MEAN_MOTION": 14.04480347, "ECCENTRICITY": 0.01921405, "INCLINATION": 73.8713, "RA_OF_ASC_NODE": 191.1887, "ARG_OF_PERICENTER": 208.3159, "MEAN_ANOMALY": 222.4323, "EPHEMERIS_TYPE": 0, "CLASSIFICATION_TYPE": "U", "NORAD_CAT_ID": 34325, "ELEMENT_SET_NO": 999, "REV_AT_EPOCH": 85528, "BSTAR": 0.0021581805, "MEAN_MOTION_DOT": 4.034e-05, "MEAN_MOTION_DDOT": 0}, "tle": {"line1": "1 34325U 93036NX  25347.65820997  .00004034  00000+0  21582-2 0  9995", "line2": "2 34325  73.8713 191.1887 0192140 208.3159 222.4323 14.04480347855289"}}, "geometry": {"type": "Point", "coordinates": [70.7896546076282, -71.70141242669735]}}]}